{
  "type": "FeatureCollection",
  "features": [
    {
      "type": "Feature",
      "properties": {
        "norad_id": 36036,
        "name": "SMOS",
        "group": "resource",
        "lat": -76.35194252850891,
        "lon": -140.21009235738418,
        "alt_km": 767.3565229619226,
        "timestamp": "2025-12-23T05:02:11.680339+00:00",
        "meta_object_name": "SMOS",
        "meta_object_id": "2009-059A",
        "meta_epoch": "2025-12-22T19:23:47.927904",
        "meta_mean_motion": 14.39749777,
        "meta_eccentricity": 0.00010604,
        "meta_inclination": 98.4381,
        "meta_ra_of_asc_node": 181.7075,
        "meta_arg_of_pericenter": 83.478,
        "meta_mean_anomaly": 276.6529,
        "meta_ephemeris_type": 0,
        "meta_classification_type": "U",
        "meta_norad_cat_id": 36036,
        "meta_element_set_no": 999,
        "meta_rev_at_epoch": 84807,
        "meta_bstar": 0.00012283396,
        "meta_mean_motion_dot": 3.41e-06,
        "meta_mean_motion_ddot": 0,
        "tle_line1": "1 36036U 09059A   25356.80819361  .00000341  00000+0  12283-3 0  9994",
        "tle_line2": "2 36036  98.4381 181.7075 0001060  83.4780 276.6529 14.39749777848071"
      },
      "geometry": {
        "type": "Point",
        "coordinates": [
          -140.21009235738418,
          -76.35194252850891
        ]
      }
    },
    {
      "type": "Feature",
      "properties": {
        "norad_id": 36110,
        "name": "YAOGAN-7",
        "group": "resource",
        "lat": 80.34475563274026,
        "lon": 114.99959852496939,
        "alt_km": 643.2936575810772,
        "timestamp": "2025-12-23T05:02:11.680349+00:00",
        "meta_object_name": "YAOGAN-7",
        "meta_object_id": "2009-069A",
        "meta_epoch": "2025-12-22T15:36:15.487200",
        "meta_mean_motion": 14.77746064,
        "meta_eccentricity": 0.00234069,
        "meta_inclination": 98.0295,
        "meta_ra_of_asc_node": 238.3715,
        "meta_arg_of_pericenter": 247.4675,
        "meta_mean_anomaly": 112.4058,
        "meta_ephemeris_type": 0,
        "meta_classification_type": "U",
        "meta_norad_cat_id": 36110,
        "meta_element_set_no": 999,
        "meta_rev_at_epoch": 86355,
        "meta_bstar": 8.4897324e-05,
        "meta_mean_motion_dot": 5.58e-06,
        "meta_mean_motion_ddot": 0,
        "tle_line1": "1 36110U 09069A   25356.65017925  .00000558  00000+0  84897-4 0  9998",
        "tle_line2": "2 36110  98.0295 238.3715 0023406 247.4675 112.4058 14.77746064863559"
      },
      "geometry": {
        "type": "Point",
        "coordinates": [
          114.99959852496939,
          80.34475563274026
        ]
      }
    },
    {
      "type": "Feature",
      "properties": {
        "norad_id": 36605,
        "name": "TANDEM-X",
        "group": "resource",
        "lat": 78.06187286408802,
        "lon": -139.3604576514548,
        "alt_km": 499.94989801960946,
        "timestamp": "2025-12-23T05:02:11.680359+00:00",
        "meta_object_name": "TANDEM-X",
        "meta_object_id": "2010-030A",
        "meta_epoch": "2025-12-22T14:22:24.829536",
        "meta_mean_motion": 15.19158129,
        "meta_eccentricity": 0.0001799,
        "meta_inclination": 97.4444,
        "meta_ra_of_asc_node": 1.8349,
        "meta_arg_of_pericenter": 78.6886,
        "meta_mean_anomaly": 281.4551,
        "meta_ephemeris_type": 0,
        "meta_classification_type": "U",
        "meta_norad_cat_id": 36605,
        "meta_element_set_no": 999,
        "meta_rev_at_epoch": 85983,
        "meta_bstar": 3.9682032e-05,
        "meta_mean_motion_dot": 7.67e-06,
        "meta_mean_motion_ddot": 0,
        "tle_line1": "1 36605U 10030A   25356.59889849  .00000767  00000+0  39682-4 0  9996",
        "tle_line2": "2 36605  97.4444   1.8349 0001799  78.6886 281.4551 15.19158129859839"
      },
      "geometry": {
        "type": "Point",
        "coordinates": [
          -139.3604576514548,
          78.06187286408802
        ]
      }
    },
    {
      "type": "Feature",
      "properties": {
        "norad_id": 36795,
        "name": "CARTOSAT-2B",
        "group": "resource",
        "lat": 59.11048858190297,
        "lon": 32.68178296511566,
        "alt_km": 618.9652376847735,
        "timestamp": "2025-12-23T05:02:11.680370+00:00",
        "meta_object_name": "CARTOSAT-2B",
        "meta_object_id": "2010-035A",
        "meta_epoch": "2025-12-22T23:53:41.268192",
        "meta_mean_motion": 14.78738523,
        "meta_eccentricity": 0.00127158,
        "meta_inclination": 97.7838,
        "meta_ra_of_asc_node": 45.6921,
        "meta_arg_of_pericenter": 46.3436,
        "meta_mean_anomaly": 313.8828,
        "meta_ephemeris_type": 0,
        "meta_classification_type": "U",
        "meta_norad_cat_id": 36795,
        "meta_element_set_no": 999,
        "meta_rev_at_epoch": 83381,
        "meta_bstar": 7.3356735e-05,
        "meta_mean_motion_dot": 4.89e-06,
        "meta_mean_motion_ddot": 0,
        "tle_line1": "1 36795U 10035A   25356.99561653  .00000489  00000+0  73357-4 0  9993",
        "tle_line2": "2 36795  97.7838  45.6921 0012715  46.3436 313.8828 14.78738523833817"
      },
      "geometry": {
        "type": "Point",
        "coordinates": [
          32.68178296511566,
          59.11048858190297
        ]
      }
    },
    {
      "type": "Feature",
      "properties": {
        "norad_id": 36834,
        "name": "YAOGAN-10",
        "group": "resource",
        "lat": 2.0302776832032374,
        "lon": 16.668926563174807,
        "alt_km": 617.2699824372148,
        "timestamp": "2025-12-23T05:02:11.680380+00:00",
        "meta_object_name": "YAOGAN-10",
        "meta_object_id": "2010-038A",
        "meta_epoch": "2025-12-23T00:18:37.980576",
        "meta_mean_motion": 14.84641808,
        "meta_eccentricity": 0.00013097,
        "meta_inclination": 97.9128,
        "meta_ra_of_asc_node": 16.756,
        "meta_arg_of_pericenter": 80.4046,
        "meta_mean_anomaly": 309.9552,
        "meta_ephemeris_type": 0,
        "meta_classification_type": "U",
        "meta_norad_cat_id": 36834,
        "meta_element_set_no": 999,
        "meta_rev_at_epoch": 83106,
        "meta_bstar": 0.00018197486,
        "meta_mean_motion_dot": 1.485e-05,
        "meta_mean_motion_ddot": 0,
        "tle_line1": "1 36834U 10038A   25357.01293959  .00001485  00000+0  18197-3 0  9992",
        "tle_line2": "2 36834  97.9128  16.7560 0001309  80.4046 309.9552 14.84641808831067"
      },
      "geometry": {
        "type": "Point",
        "coordinates": [
          16.668926563174807,
          2.0302776832032374
        ]
      }
    },
    {
      "type": "Feature",
      "properties": {
        "norad_id": 37216,
        "name": "COSMO-SKYMED 4",
        "group": "resource",
        "lat": -12.230909834043056,
        "lon": -3.3452709950000785,
        "alt_km": 627.3712747958971,
        "timestamp": "2025-12-23T05:02:11.680390+00:00",
        "meta_object_name": "COSMO-SKYMED 4",
        "meta_object_id": "2010-060A",
        "meta_epoch": "2025-12-22T23:18:40.833216",
        "meta_mean_motion": 14.82155777,
        "meta_eccentricity": 0.0001391,
        "meta_inclination": 97.8799,
        "meta_ra_of_asc_node": 178.1403,
        "meta_arg_of_pericenter": 80.3637,
        "meta_mean_anomaly": 279.7733,
        "meta_ephemeris_type": 0,
        "meta_classification_type": "U",
        "meta_norad_cat_id": 37216,
        "meta_element_set_no": 999,
        "meta_rev_at_epoch": 81846,
        "meta_bstar": 3.7931477e-05,
        "meta_mean_motion_dot": 2.5e-06,
        "meta_mean_motion_ddot": 0,
        "tle_line1": "1 37216U 10060A   25356.97130594  .00000250  00000+0  37931-4 0  9998",
        "tle_line2": "2 37216  97.8799 178.1403 0001391  80.3637 279.7733 14.82155777818467"
      },
      "geometry": {
        "type": "Point",
        "coordinates": [
          -3.3452709950000785,
          -12.230909834043056
        ]
      }
    },
    {
      "type": "Feature",
      "properties": {
        "norad_id": 37387,
        "name": "RESOURCESAT-2",
        "group": "resource",
        "lat": 38.0925244571534,
        "lon": 53.75051936190983,
        "alt_km": 813.1894788925019,
        "timestamp": "2025-12-23T05:02:11.680401+00:00",
        "meta_object_name": "RESOURCESAT-2",
        "meta_object_id": "2011-015A",
        "meta_epoch": "2025-12-22T22:05:56.168736",
        "meta_mean_motion": 14.21601137,
        "meta_eccentricity": 0.00059454,
        "meta_inclination": 98.7862,
        "meta_ra_of_asc_node": 60.4263,
        "meta_arg_of_pericenter": 14.8702,
        "meta_mean_anomaly": 345.2649,
        "meta_ephemeris_type": 0,
        "meta_classification_type": "U",
        "meta_norad_cat_id": 37387,
        "meta_element_set_no": 999,
        "meta_rev_at_epoch": 76113,
        "meta_bstar": 8.742794e-05,
        "meta_mean_motion_dot": 1.47e-06,
        "meta_mean_motion_ddot": 0,
        "tle_line1": "1 37387U 11015A   25356.92078899  .00000147  00000+0  87428-4 0  9993",
        "tle_line2": "2 37387  98.7862  60.4263 0005945  14.8702 345.2649 14.21601137761133"
      },
      "geometry": {
        "type": "Point",
        "coordinates": [
          53.75051936190983,
          38.0925244571534
        ]
      }
    }
  ]
}